ONEWEB-0637             
1 56078U 23043AJ  25236.20207975 -.00000098  00000+0 -29429-3 0  9995
2 56078  87.9061 318.4711 0002212 105.8248 254.3126 13.15547946117387
ONEWEB-0647             
1 56079U 23043AK  25236.50154469  .00000007  00000+0 -16023-4 0  9994
2 56079  87.9071 318.4234 0002021  93.7751 266.3610 13.15547665117414
ONEWEB-0651             
1 56080U 23043AL  25236.19256403  .00000114  00000+0  26786-3 0  9996
2 56080  87.9078 318.4748 0002225 100.7635 259.3746 13.15547652118575
ONEWEB-0718             
1 56081U 23043AM  25236.56810643 -.00000186  00000+0 -52861-3 0  9994
2 56081  87.9072 318.3826 0001658 116.4577 243.6723 13.15548678117438
ONEWEB-0561             
1 56710U 23068A   25236.30690709  .00000080  00000+0  16510-3 0  9993
2 56710  87.9292 333.6255 0002326  90.8546 269.2854 13.20772535110317
ONEWEB-0668             
1 56711U 23068B   25236.61246819  .00000082  00000+0  18189-3 0  9993
2 56711  87.9025 287.8737 0001901 111.5249 248.6084 13.16591530112751
ONEWEB-0676             
1 56712U 23068C   25236.59270558 -.00000028  00000+0 -10796-3 0  9996
2 56712  87.9015 287.8988 0002276  90.5751 269.5641 13.16594195112671
ONEWEB-0677             
1 56713U 23068D   25236.52313143  .00000121  00000+0  26670-3 0  9998
2 56713  87.9291 333.5590 0002226 101.6541 258.4842 13.20773347110640
ONEWEB-0678             
1 56714U 23068E   25236.61246701  .00000093  00000+0  21215-3 0  9992
2 56714  87.9079 318.3459 0001844  88.3549 271.7793 13.15547444110299
ONEWEB-0679             
1 56715U 23068F   25236.56184242 -.00000013  00000+0 -67326-4 0  9996
2 56715  87.9013 287.8974 0002410 104.3565 255.7834 13.16593105112697
ONEWEB-0680             
1 56716U 23068G   25236.59444397  .00000050  00000+0  90000-4 0  9994
2 56716  87.9237 303.1459 0002116 115.4852 244.6501 13.21827143111911
ONEWEB-0681             
1 56717U 23068H   25236.57239418  .00000073  00000+0  14629-3 0  9996
2 56717  87.9255 303.1668 0003086  91.5265 268.6222 13.21826093111901
ONEWEB-0682             
1 56718U 23068J   25236.25831186 -.00000138  00000+0 -40108-3 0  9997
2 56718  87.9063 318.4392 0002061 114.2679 245.8667 13.15548278110410
ONEWEB-0683             
1 56719U 23068K   25236.20366133  .00000090  00000+0  20529-3 0  9998
2 56719  87.9072 318.4262 0001955 107.7489 252.3855 13.15547605110374
ONEWEB-0684             
1 56720U 23068L   25236.51581108  .00000239  00000+0  59981-3 0  9994
2 56720  87.9050 318.3664 0001144  51.9382 308.1852 13.15548056110243
ONEWEB-0686             
1 56721U 23068M   25236.55149277  .00000020  00000+0  19820-4 0  9993
2 56721  87.9005 287.9307 0001749 101.6472 258.4855 13.16597443112688
