[{"OBJECT_NAME":"ONEWEB-0637","OBJECT_ID":"2023-043AJ","EPOCH":"2025-08-24T04:50:59.690400","MEAN_MOTION":13.15547946,"ECCENTRICITY":0.00022123,"INCLINATION":87.9061,"RA_OF_ASC_NODE":318.4711,"ARG_OF_PERICENTER":105.8248,"MEAN_ANOMALY":254.3126,"EPHEMERIS_TYPE":0,"CLASSIFICATION_TYPE":"U","NORAD_CAT_ID":56078,"ELEMENT_SET_NO":999,"REV_AT_EPOCH":11738,"BSTAR":-0.00029429427,"MEAN_MOTION_DOT":-9.8e-7,"MEAN_MOTION_DDOT":0},{"OBJECT_NAME":"ONEWEB-0647","OBJECT_ID":"2023-043AK","EPOCH":"2025-08-24T12:02:13.461216","MEAN_MOTION":13.15547665,"ECCENTRICITY":0.00020217,"INCLINATION":87.9071,"RA_OF_ASC_NODE":318.4234,"ARG_OF_PERICENTER":93.7751,"MEAN_ANOMALY":266.361,"EPHEMERIS_TYPE":0,"CLASSIFICATION_TYPE":"U","NORAD_CAT_ID":56079,"ELEMENT_SET_NO":999,"REV_AT_EPOCH":11741,"BSTAR":-1.602325e-5,"MEAN_MOTION_DOT":7.0e-8,"MEAN_MOTION_DDOT":0},{"OBJECT_NAME":"ONEWEB-0651","OBJECT_ID":"2023-043AL","EPOCH":"2025-08-24T04:37:17.532192","MEAN_MOTION":13.15547652,"ECCENTRICITY":0.00022256,"INCLINATION":87.9078,"RA_OF_ASC_NODE":318.4748,"ARG_OF_PERICENTER":100.7635,"MEAN_ANOMALY":259.3746,"EPHEMERIS_TYPE":0,"CLASSIFICATION_TYPE":"U","NORAD_CAT_ID":56080,"ELEMENT_SET_NO":999,"REV_AT_EPOCH":11857,"BSTAR":0.00026786269,"MEAN_MOTION_DOT":1.14e-6,"MEAN_MOTION_DDOT":0},{"OBJECT_NAME":"ONEWEB-0718","OBJECT_ID":"2023-043AM","EPOCH":"2025-08-24T13:38:04.395552","MEAN_MOTION":13.15548678,"ECCENTRICITY":0.00016588,"INCLINATION":87.9072,"RA_OF_ASC_NODE":318.3826,"ARG_OF_PERICENTER":116.4577,"MEAN_ANOMALY":243.6723,"EPHEMERIS_TYPE":0,"CLASSIFICATION_TYPE":"U","NORAD_CAT_ID":56081,"ELEMENT_SET_NO":999,"REV_AT_EPOCH":11743,"BSTAR":-0.00052860546,"MEAN_MOTION_DOT":-1.86e-6,"MEAN_MOTION_DDOT":0},{"OBJECT_NAME":"ONEWEB-0561","OBJECT_ID":"2023-068A","EPOCH":"2025-08-24T07:21:56.772576","MEAN_MOTION":13.20772535,"ECCENTRICITY":0.00023261,"INCLINATION":87.9292,"RA_OF_ASC_NODE":333.6255,"ARG_OF_PERICENTER":90.8546,"MEAN_ANOMALY":269.2854,"EPHEMERIS_TYPE":0,"CLASSIFICATION_TYPE":"U","NORAD_CAT_ID":56710,"ELEMENT_SET_NO":999,"REV_AT_EPOCH":11031,"BSTAR":0.00016509995,"MEAN_MOTION_DOT":8.0e-7,"MEAN_MOTION_DDOT":0},{"OBJECT_NAME":"ONEWEB-0668","OBJECT_ID":"2023-068B","EPOCH":"2025-08-24T14:41:57.251616","MEAN_MOTION":13.1659153,"ECCENTRICITY":0.00019017,"INCLINATION":87.9025,"RA_OF_ASC_NODE":287.8737,"ARG_OF_PERICENTER":111.5249,"MEAN_ANOMALY":248.6084,"EPHEMERIS_TYPE":0,"CLASSIFICATION_TYPE":"U","NORAD_CAT_ID":56711,"ELEMENT_SET_NO":999,"REV_AT_EPOCH":11275,"BSTAR":0.00018188658,"MEAN_MOTION_DOT":8.2e-7,"MEAN_MOTION_DDOT":0},{"OBJECT_NAME":"ONEWEB-0676","OBJECT_ID":"2023-068C","EPOCH":"2025-08-24T14:13:29.762112","MEAN_MOTION":13.16594195,"ECCENTRICITY":0.0002276,"INCLINATION":87.9015,"RA_OF_ASC_NODE":287.8988,"ARG_OF_PERICENTER":90.5751,"MEAN_ANOMALY":269.5641,"EPHEMERIS_TYPE":0,"CLASSIFICATION_TYPE":"U","NORAD_CAT_ID":56712,"ELEMENT_SET_NO":999,"REV_AT_EPOCH":11267,"BSTAR":-0.0001079627,"MEAN_MOTION_DOT":-2.8e-7,"MEAN_MOTION_DDOT":0},{"OBJECT_NAME":"ONEWEB-0677","OBJECT_ID":"2023-068D","EPOCH":"2025-08-24T12:33:18.555552","MEAN_MOTION":13.20773347,"ECCENTRICITY":0.00022262,"INCLINATION":87.9291,"RA_OF_ASC_NODE":333.559,"ARG_OF_PERICENTER":101.6541,"MEAN_ANOMALY":258.4842,"EPHEMERIS_TYPE":0,"CLASSIFICATION_TYPE":"U","NORAD_CAT_ID":56713,"ELEMENT_SET_NO":999,"REV_AT_EPOCH":11064,"BSTAR":0.00026669552,"MEAN_MOTION_DOT":1.21e-6,"MEAN_MOTION_DDOT":0},{"OBJECT_NAME":"ONEWEB-0678","OBJECT_ID":"2023-068E","EPOCH":"2025-08-24T14:41:57.149664","MEAN_MOTION":13.15547444,"ECCENTRICITY":0.0001844,"INCLINATION":87.9079,"RA_OF_ASC_NODE":318.3459,"ARG_OF_PERICENTER":88.3549,"MEAN_ANOMALY":271.7793,"EPHEMERIS_TYPE":0,"CLASSIFICATION_TYPE":"U","NORAD_CAT_ID":56714,"ELEMENT_SET_NO":999,"REV_AT_EPOCH":11029,"BSTAR":0.00021215279,"MEAN_MOTION_DOT":9.3e-7,"MEAN_MOTION_DDOT":0},{"OBJECT_NAME":"ONEWEB-0679","OBJECT_ID":"2023-068F","EPOCH":"2025-08-24T13:29:03.185088","MEAN_MOTION":13.16593105,"ECCENTRICITY":0.00024107,"INCLINATION":87.9013,"RA_OF_ASC_NODE":287.8974,"ARG_OF_PERICENTER":104.3565,"MEAN_ANOMALY":255.7834,"EPHEMERIS_TYPE":0,"CLASSIFICATION_TYPE":"U","NORAD_CAT_ID":56715,"ELEMENT_SET_NO":999,"REV_AT_EPOCH":11269,"BSTAR":-6.7326481e-5,"MEAN_MOTION_DOT":-1.3e-7,"MEAN_MOTION_DDOT":0},{"OBJECT_NAME":"ONEWEB-0680","OBJECT_ID":"2023-068G","EPOCH":"2025-08-24T14:15:59.959008","MEAN_MOTION":13.21827143,"ECCENTRICITY":0.00021161,"INCLINATION":87.9237,"RA_OF_ASC_NODE":303.1459,"ARG_OF_PERICENTER":115.4852,"MEAN_ANOMALY":244.6501,"EPHEMERIS_TYPE":0,"CLASSIFICATION_TYPE":"U","NORAD_CAT_ID":56716,"ELEMENT_SET_NO":999,"REV_AT_EPOCH":11191,"BSTAR":9.0000153e-5,"MEAN_MOTION_DOT":5.0e-7,"MEAN_MOTION_DDOT":0},{"OBJECT_NAME":"ONEWEB-0681","OBJECT_ID":"2023-068H","EPOCH":"2025-08-24T13:44:14.857152","MEAN_MOTION":13.21826093,"ECCENTRICITY":0.00030865,"INCLINATION":87.9255,"RA_OF_ASC_NODE":303.1668,"ARG_OF_PERICENTER":91.5265,"MEAN_ANOMALY":268.6222,"EPHEMERIS_TYPE":0,"CLASSIFICATION_TYPE":"U","NORAD_CAT_ID":56717,"ELEMENT_SET_NO":999,"REV_AT_EPOCH":11190,"BSTAR":0.00014628537,"MEAN_MOTION_DOT":7.3e-7,"MEAN_MOTION_DDOT":0},{"OBJECT_NAME":"ONEWEB-0682","OBJECT_ID":"2023-068J","EPOCH":"2025-08-24T06:11:58.144704","MEAN_MOTION":13.15548278,"ECCENTRICITY":0.0002061,"INCLINATION":87.9063,"RA_OF_ASC_NODE":318.4392,"ARG_OF_PERICENTER":114.2679,"MEAN_ANOMALY":245.8667,"EPHEMERIS_TYPE":0,"CLASSIFICATION_TYPE":"U","NORAD_CAT_ID":56718,"ELEMENT_SET_NO":999,"REV_AT_EPOCH":11041,"BSTAR":-0.00040107907,"MEAN_MOTION_DOT":-1.38e-6,"MEAN_MOTION_DDOT":0},{"OBJECT_NAME":"ONEWEB-0683","OBJECT_ID":"2023-068K","EPOCH":"2025-08-24T04:53:16.338912","MEAN_MOTION":13.15547605,"ECCENTRICITY":0.00019552,"INCLINATION":87.9072,"RA_OF_ASC_NODE":318.4262,"ARG_OF_PERICENTER":107.7489,"MEAN_ANOMALY":252.3855,"EPHEMERIS_TYPE":0,"CLASSIFICATION_TYPE":"U","NORAD_CAT_ID":56719,"ELEMENT_SET_NO":999,"REV_AT_EPOCH":11037,"BSTAR":0.00020529119,"MEAN_MOTION_DOT":9.0e-7,"MEAN_MOTION_DDOT":0},{"OBJECT_NAME":"ONEWEB-0684","OBJECT_ID":"2023-068L","EPOCH":"2025-08-24T12:22:46.077312","MEAN_MOTION":13.15548056,"ECCENTRICITY":0.00011442,"INCLINATION":87.905,"RA_OF_ASC_NODE":318.3664,"ARG_OF_PERICENTER":51.9382,"MEAN_ANOMALY":308.1852,"EPHEMERIS_TYPE":0,"CLASSIFICATION_TYPE":"U","NORAD_CAT_ID":56720,"ELEMENT_SET_NO":999,"REV_AT_EPOCH":11024,"BSTAR":0.00059981302,"MEAN_MOTION_DOT":2.39e-6,"MEAN_MOTION_DDOT":0},{"OBJECT_NAME":"ONEWEB-0686","OBJECT_ID":"2023-068M","EPOCH":"2025-08-24T13:14:08.975328","MEAN_MOTION":13.16597443,"ECCENTRICITY":0.00017498,"INCLINATION":87.9005,"RA_OF_ASC_NODE":287.9307,"ARG_OF_PERICENTER":101.6472,"MEAN_ANOMALY":258.4855,"EPHEMERIS_TYPE":0,"CLASSIFICATION_TYPE":"U","NORAD_CAT_ID":56721,"ELEMENT_SET_NO":999,"REV_AT_EPOCH":11268,"BSTAR":1.9819701e-5,"MEAN_MOTION_DOT":2.0e-7,"MEAN_MOTION_DDOT":0}]
